start=new Date('2023-01-02T00:00:00.000Z').valueOf();
sats=[{"RCS_SIZE":"LARGE","REF_FRAME":"TEME","ARG_OF_PERICENTER":"37.7251","MEAN_MOTION":"15.06387529","APOAPSIS":"548.984","FILE":"3728952","SEMIMAJOR_AXIS":"6925.387","PERIAPSIS":"545.520","EPHEMERIS_TYPE":"0","PERIOD":"95.593","MEAN_ELEMENT_THEORY":"SGP4","MEAN_MOTION_DOT":"-0.00004925","ELEMENT_SET_NO":"999","CLASSIFICATION_TYPE":"U","NORAD_CAT_ID":"48109","CENTER_NAME":"EARTH","TIME_SYSTEM":"UTC","INCLINATION":"53.0562","OBJECT_NAME":"STARLINK-2445","RA_OF_ASC_NODE":"352.6488","LAUNCH_DATE":"2021-04-07","TLE_LINE2":"2 48109  53.0562 352.6488 0002501  37.7251 322.3913 15.06387529 97122","ECCENTRICITY":"0.00025010","OBJECT_ID":"2021-027T","REV_AT_EPOCH":"9712","COUNTRY_CODE":"US","MEAN_ANOMALY":"322.3913","OBJECT_TYPE":"PAYLOAD","GP_ID":"221989320","TLE_LINE1":"1 48109U 21027T   23001.66531438 -.00004925  00000-0 -31204-3 0  9991","DECAY_DATE":null,"SITE":"AFETR","BSTAR":"-0.00031204000000","MEAN_MOTION_DDOT":"0.0000000000000","EPOCH":"2023-01-01T15:58:03.162432"},{"EPOCH":"2023-01-01T15:22:14.903328","MEAN_MOTION_DDOT":"0.0000000000000","TLE_LINE1":"1 48110U 21027U   23001.64045027 -.00003087  00000-0 -18848-3 0  9992","SITE":"AFETR","DECAY_DATE":null,"BSTAR":"-0.00018848000000","OBJECT_TYPE":"PAYLOAD","GP_ID":"221987569","MEAN_ANOMALY":"322.7817","COUNTRY_CODE":"US","REV_AT_EPOCH":"9726","OBJECT_ID":"2021-027U","ECCENTRICITY":"0.00022660","TLE_LINE2":"2 48110  53.0564 342.7577 0002266  37.3329 322.7817 15.06381780 97260","LAUNCH_DATE":"2021-04-07","RA_OF_ASC_NODE":"342.7577","OBJECT_NAME":"STARLINK-2447","INCLINATION":"53.0564","TIME_SYSTEM":"UTC","NORAD_CAT_ID":"48110","CENTER_NAME":"EARTH","CLASSIFICATION_TYPE":"U","ELEMENT_SET_NO":"999","MEAN_MOTION_DOT":"-0.00003087","MEAN_ELEMENT_THEORY":"SGP4","PERIOD":"95.593","EPHEMERIS_TYPE":"0","PERIAPSIS":"545.700","SEMIMAJOR_AXIS":"6925.404","FILE":"3728952","APOAPSIS":"548.839","MEAN_MOTION":"15.06381780","ARG_OF_PERICENTER":"37.3329","REF_FRAME":"TEME","RCS_SIZE":"LARGE"},{"REF_FRAME":"TEME","RCS_SIZE":"LARGE","FILE":"3728952","APOAPSIS":"548.519","MEAN_MOTION":"15.06396618","ARG_OF_PERICENTER":"46.8039","PERIOD":"95.592","PERIAPSIS":"545.929","EPHEMERIS_TYPE":"0","SEMIMAJOR_AXIS":"6925.359","CENTER_NAME":"EARTH","NORAD_CAT_ID":"48111","CLASSIFICATION_TYPE":"U","ELEMENT_SET_NO":"999","MEAN_MOTION_DOT":"-0.00001880","MEAN_ELEMENT_THEORY":"SGP4","RA_OF_ASC_NODE":"342.7684","OBJECT_NAME":"STARLINK-2448","INCLINATION":"53.0553","TIME_SYSTEM":"UTC","TLE_LINE2":"2 48111  53.0553 342.7684 0001870  46.8039 313.3106 15.06396618 97264","LAUNCH_DATE":"2021-04-07","OBJECT_TYPE":"PAYLOAD","GP_ID":"221988319","MEAN_ANOMALY":"313.3106","COUNTRY_CODE":"US","REV_AT_EPOCH":"9726","OBJECT_ID":"2021-027V","ECCENTRICITY":"0.00018700","EPOCH":"2023-01-01T15:11:35.976192","MEAN_MOTION_DDOT":"0.0000000000000","TLE_LINE1":"1 48111U 21027V   23001.63305528 -.00001880  00000-0 -10735-3 0  9993","SITE":"AFETR","DECAY_DATE":null,"BSTAR":"-0.00010735000000"},{"PERIAPSIS":"545.368","EPHEMERIS_TYPE":"0","PERIOD":"95.593","SEMIMAJOR_AXIS":"6925.400","CLASSIFICATION_TYPE":"U","NORAD_CAT_ID":"48112","CENTER_NAME":"EARTH","MEAN_ELEMENT_THEORY":"SGP4","MEAN_MOTION_DOT":"-0.00005744","ELEMENT_SET_NO":"999","REF_FRAME":"TEME","RCS_SIZE":"LARGE","ARG_OF_PERICENTER":"34.6015","MEAN_MOTION":"15.06383062","APOAPSIS":"549.163","FILE":"3728952","COUNTRY_CODE":"US","MEAN_ANOMALY":"325.5152","OBJECT_TYPE":"PAYLOAD","GP_ID":"221988571","ECCENTRICITY":"0.00027400","OBJECT_ID":"2021-027W","REV_AT_EPOCH":"9705","MEAN_MOTION_DDOT":"0.0000000000000","EPOCH":"2023-01-01T16:37:13.737504","TLE_LINE1":"1 48112U 21027W   23001.69252011 -.00005744  00000-0 -36713-3 0  9995","DECAY_DATE":null,"BSTAR":"-0.00036713000000","SITE":"AFETR","INCLINATION":"53.0561","OBJECT_NAME":"STARLINK-2449","RA_OF_ASC_NODE":"357.6916","TIME_SYSTEM":"UTC","TLE_LINE2":"2 48112  53.0561 357.6916 0002740  34.6015 325.5152 15.06383062 97055","LAUNCH_DATE":"2021-04-07"},{"ELEMENT_SET_NO":"999","MEAN_MOTION_DOT":"0.00004503","MEAN_ELEMENT_THEORY":"SGP4","NORAD_CAT_ID":"48113","CENTER_NAME":"EARTH","CLASSIFICATION_TYPE":"U","SEMIMAJOR_AXIS":"6925.372","PERIOD":"95.593","EPHEMERIS_TYPE":"0","PERIAPSIS":"545.822","FILE":"3729065","APOAPSIS":"548.652","MEAN_MOTION":"15.06392248","ARG_OF_PERICENTER":"50.3432","RCS_SIZE":"LARGE","REF_FRAME":"TEME","BSTAR":"0.00032109000000","TLE_LINE1":"1 48113U 21027X   23001.69480150  .00004503  00000-0  32109-3 0  9998","DECAY_DATE":null,"SITE":"AFETR","EPOCH":"2023-01-01T16:40:30.849600","MEAN_MOTION_DDOT":"0.0000000000000","REV_AT_EPOCH":"9672","OBJECT_ID":"2021-027X","ECCENTRICITY":"0.00020430","GP_ID":"221995913","OBJECT_TYPE":"PAYLOAD","MEAN_ANOMALY":"309.7737","COUNTRY_CODE":"US","LAUNCH_DATE":"2021-04-07","TLE_LINE2":"2 48113  53.0535 352.5191 0002043  50.3432 309.7737 15.06392248 96722","TIME_SYSTEM":"UTC","RA_OF_ASC_NODE":"352.5191","OBJECT_NAME":"STARLINK-2450","INCLINATION":"53.0535"},{"TLE_LINE2":"2 48114  53.0549 347.6761 0001860  61.7993 298.3184 15.06390837 97193","LAUNCH_DATE":"2021-04-07","INCLINATION":"53.0549","OBJECT_NAME":"STARLINK-2451","RA_OF_ASC_NODE":"347.6761","TIME_SYSTEM":"UTC","MEAN_MOTION_DDOT":"0.0000000000000","EPOCH":"2023-01-01T15:44:05.053056","TLE_LINE1":"1 48114U 21027Y   23001.65561404 -.00003439  00000-0 -21211-3 0  9998","DECAY_DATE":null,"SITE":"AFETR","BSTAR":"-0.00021211000000","COUNTRY_CODE":"US","MEAN_ANOMALY":"298.3184","GP_ID":"221988069","OBJECT_TYPE":"PAYLOAD","ECCENTRICITY":"0.00018600","OBJECT_ID":"2021-027Y","REV_AT_EPOCH":"9719","ARG_OF_PERICENTER":"61.7993","MEAN_MOTION":"15.06390837","APOAPSIS":"548.530","FILE":"3728952","REF_FRAME":"TEME","RCS_SIZE":"LARGE","CLASSIFICATION_TYPE":"U","NORAD_CAT_ID":"48114","CENTER_NAME":"EARTH","MEAN_ELEMENT_THEORY":"SGP4","MEAN_MOTION_DOT":"-0.00003439","ELEMENT_SET_NO":"999","PERIAPSIS":"545.954","EPHEMERIS_TYPE":"0","PERIOD":"95.593","SEMIMAJOR_AXIS":"6925.377"},{"COUNTRY_CODE":"US","OBJECT_TYPE":"PAYLOAD","GP_ID":"221930960","MEAN_ANOMALY":"307.5816","OBJECT_ID":"2021-027Z","ECCENTRICITY":"0.00016140","REV_AT_EPOCH":"9722","EPOCH":"2023-01-01T10:02:24.156096","MEAN_MOTION_DDOT":"0.0000000000000","TLE_LINE1":"1 48115U 21027Z   23001.41833514 -.00003692  00000-0 -22910-3 0  9995","DECAY_DATE":null,"SITE":"AFETR","BSTAR":"-0.00022910000000","INCLINATION":"53.0523","RA_OF_ASC_NODE":"343.7537","OBJECT_NAME":"STARLINK-2452","TIME_SYSTEM":"UTC","TLE_LINE2":"2 48115  53.0523 343.7537 0001614  52.5319 307.5816 15.06398448 97226","LAUNCH_DATE":"2021-04-07","EPHEMERIS_TYPE":"0","PERIAPSIS":"546.101","PERIOD":"95.592","SEMIMAJOR_AXIS":"6925.353","CLASSIFICATION_TYPE":"U","CENTER_NAME":"EARTH","NORAD_CAT_ID":"48115","MEAN_MOTION_DOT":"-0.00003692","MEAN_ELEMENT_THEORY":"SGP4","ELEMENT_SET_NO":"999","REF_FRAME":"TEME","RCS_SIZE":"LARGE","MEAN_MOTION":"15.06398448","ARG_OF_PERICENTER":"52.5319","FILE":"3728759","APOAPSIS":"548.336"},{"ELEMENT_SET_NO":"999","MEAN_MOTION_DOT":"-0.00000730","MEAN_ELEMENT_THEORY":"SGP4","NORAD_CAT_ID":"48116","CENTER_NAME":"EARTH","CLASSIFICATION_TYPE":"U","SEMIMAJOR_AXIS":"6925.381","PERIOD":"95.593","EPHEMERIS_TYPE":"0","PERIAPSIS":"545.332","FILE":"3728952","APOAPSIS":"549.159","MEAN_MOTION":"15.06389548","ARG_OF_PERICENTER":"33.0678","RCS_SIZE":"LARGE","REF_FRAME":"TEME","TLE_LINE1":"1 48116U 21027AA  23001.69112986 -.00000730  00000-0 -30066-4 0  9991","DECAY_DATE":null,"SITE":"AFETR","BSTAR":"-0.00003006600000","EPOCH":"2023-01-01T16:35:13.619904","MEAN_MOTION_DDOT":"0.0000000000000","REV_AT_EPOCH":"9712","OBJECT_ID":"2021-027AA","ECCENTRICITY":"0.00027630","OBJECT_TYPE":"PAYLOAD","GP_ID":"221989071","MEAN_ANOMALY":"327.0483","COUNTRY_CODE":"US","LAUNCH_DATE":"2021-04-07","TLE_LINE2":"2 48116  53.0560 352.5224 0002763  33.0678 327.0483 15.06389548 97124","TIME_SYSTEM":"UTC","RA_OF_ASC_NODE":"352.5224","OBJECT_NAME":"STARLINK-2454","INCLINATION":"53.0560"},{"SEMIMAJOR_AXIS":"6925.365","PERIOD":"95.592","EPHEMERIS_TYPE":"0","PERIAPSIS":"544.991","ELEMENT_SET_NO":"999","MEAN_MOTION_DOT":"-0.00003914","MEAN_ELEMENT_THEORY":"SGP4","NORAD_CAT_ID":"48117","CENTER_NAME":"EARTH","CLASSIFICATION_TYPE":"U","RCS_SIZE":"LARGE","REF_FRAME":"TEME","FILE":"3728952","APOAPSIS":"549.469","MEAN_MOTION":"15.06394680","ARG_OF_PERICENTER":"30.9861","REV_AT_EPOCH":"9743","OBJECT_ID":"2021-027AB","ECCENTRICITY":"0.00032330","GP_ID":"221989321","OBJECT_TYPE":"PAYLOAD","MEAN_ANOMALY":"329.1318","COUNTRY_CODE":"US","TLE_LINE1":"1 48117U 21027AB  23001.86156613 -.00003914  00000-0 -24397-3 0  9992","DECAY_DATE":null,"SITE":"AFETR","BSTAR":"-0.00024397000000","EPOCH":"2023-01-01T20:40:39.313632","MEAN_MOTION_DDOT":"0.0000000000000","TIME_SYSTEM":"UTC","RA_OF_ASC_NODE":"331.7617","OBJECT_NAME":"STARLINK-2455","INCLINATION":"53.0551","LAUNCH_DATE":"2021-04-07","TLE_LINE2":"2 48117  53.0551 331.7617 0003233  30.9861 329.1318 15.06394680 97430"},{"MEAN_MOTION":"15.06387719","ARG_OF_PERICENTER":"65.1685","FILE":"3728952","APOAPSIS":"548.467","RCS_SIZE":"LARGE","REF_FRAME":"TEME","MEAN_MOTION_DOT":"0.00005685","MEAN_ELEMENT_THEORY":"SGP4","ELEMENT_SET_NO":"999","CLASSIFICATION_TYPE":"U","NORAD_CAT_ID":"48118","CENTER_NAME":"EARTH","SEMIMAJOR_AXIS":"6925.386","PERIAPSIS":"546.035","EPHEMERIS_TYPE":"0","PERIOD":"95.593","LAUNCH_DATE":"2021-04-07","TLE_LINE2":"2 48118  53.0536 331.4117 0001756  65.1685 294.9487 15.06387719 97440","TIME_SYSTEM":"UTC","INCLINATION":"53.0536","RA_OF_ASC_NODE":"331.4117","OBJECT_NAME":"STARLINK-2458","TLE_LINE1":"1 48118U 21027AC  23001.93991606  .00005685  00000-0  40039-3 0  9996","DECAY_DATE":null,"BSTAR":"0.00040039000000","SITE":"AFETR","EPOCH":"2023-01-01T22:33:28.747584","MEAN_MOTION_DDOT":"0.0000000000000","OBJECT_ID":"2021-027AC","ECCENTRICITY":"0.00017560","REV_AT_EPOCH":"9744","COUNTRY_CODE":"US","OBJECT_TYPE":"PAYLOAD","GP_ID":"221987570","MEAN_ANOMALY":"294.9487"}];
